zipcode,city,state,address,name,id
60610,Chicago,Il,102 W Division St,Jewel Osco,0
60643,Chicago,Il,11730 S Marshfield Ave,Jewel Osco,1
60608,Chicago,Il,1220 S Ashland Ave,Jewel Osco,2
60605,Chicago,Il,1224 S Wabash Ave,Jewel Osco,3
60607,Chicago,Il,1340 S Canal St,Jewel Osco,4
60622,Chicago,Il,1341 N Paulina St,Jewel Osco,5
60617,Chicago,Il,95th St,Jewel Osco,6
60626,Chicago,Il,1763 W Howard St,Jewel Osco,7
60639,Chicago,Il,2520 N Narragansett Ave,Jewel Osco,8
60614,Chicago,Il,2550 N Clybourn Ave,Jewel Osco,9
60657,Chicago,Il,2940 N Ashland Ave,Jewel Osco,10
60655,Chicago,Il,103rd St,Jewel Osco,11
60618,Chicago,Il,3400 N Western Ave,Jewel Osco,12
60657,Chicago,Il,3531 N Broadway St,Jewel Osco,13
60618,Chicago,Il,3570 N Elston Ave,Jewel Osco,14
60613,Chicago,Il,3630 N Southport Ave,Jewel Osco,15
60609,Chicago,Il,3644 S Archer Ave,Jewel Osco,16
60661,Chicago,Il,370 N Desplaines St,Jewel Osco,17
60630,Chicago,Il,4042 W Foster Ave,Jewel Osco,18
60610,Chicago,Il,424 W Division St,Jewel Osco,19
60618,Chicago,Il,4250 N Lincoln Ave,Jewel Osco,20
60613,Chicago,Il,4355 N Sheridan Rd,Jewel Osco,21
60616,Chicago,Il,34th St,Jewel Osco,22
60641,Chicago,Il,4660 W Irving Park Rd,Jewel Osco,23
60630,Chicago,Il,4729 N Central Ave,Jewel Osco,24
60656,Chicago,Il,4734 N Cumberland Ave,Jewel Osco,25
60632,Chicago,Il,5320 S Pulaski Rd,Jewel Osco,26
60640,Chicago,Il,5343 N Broadway,Jewel Osco,27
60654,Chicago,Il,550 N State St,Jewel Osco,28
60640,Chicago,Il,5516 N Clark St,Jewel Osco,29
60637,Chicago,Il,6014 S Cottage Grove,Jewel Osco,30
60638,Chicago,Il,6107 S Archer Ave,Jewel Osco,31
60634,Chicago,Il,6430 W Irving Park Rd,Jewel Osco,32
60656,Chicago,Il,7342 W Foster Ave,Jewel Osco,33
60649,Chicago,Il,7530 S Stony Island Ave,Jewel Osco,34
60620,Chicago,Il,87th St,Jewel Osco,35
60620,Chicago,Il,9400 S Ashland Ave,Jewel Osco,36
